[{"OBJECT_NAME":"ONEWEB-0314","OBJECT_ID":"2021-075AB","EPOCH":"2026-03-09T21:49:53.911200","MEAN_MOTION":13.17648657,"ECCENTRICITY":0.00020663,"INCLINATION":87.9162,"RA_OF_ASC_NODE":25.5573,"ARG_OF_PERICENTER":69.4415,"MEAN_ANOMALY":290.6938,"EPHEMERIS_TYPE":0,"CLASSIFICATION_TYPE":"U","NORAD_CAT_ID":49100,"ELEMENT_SET_NO":999,"REV_AT_EPOCH":22049,"BSTAR":2.897504e-5,"MEAN_MOTION_DOT":2.4e-7,"MEAN_MOTION_DDOT":0},{"OBJECT_NAME":"BREEZE-KM DEB","OBJECT_ID":"2015-020L","EPOCH":"2026-03-08T03:10:36.885504","MEAN_MOTION":12.92886112,"ECCENTRICITY":0.02211074,"INCLINATION":82.486,"RA_OF_ASC_NODE":217.4544,"ARG_OF_PERICENTER":105.5363,"MEAN_ANOMALY":257.0274,"EPHEMERIS_TYPE":0,"CLASSIFICATION_TYPE":"U","NORAD_CAT_ID":41723,"ELEMENT_SET_NO":999,"REV_AT_EPOCH":48627,"BSTAR":0.00078945926,"MEAN_MOTION_DOT":2.53e-6,"MEAN_MOTION_DDOT":0}]
